{"type": "FeatureCollection", "features": [ {"type": "Feature", "properties": {"norad_id": 67041, "name": "STARLINK-35765", "group": "last-30-days", "lat": -34.211879814533106, "lon": -39.650373626745235, "alt_km": 382.8463387547181, "timestamp": "2025-12-27T06:41:29.622175+00:00", "meta": {"OBJECT_NAME": "STARLINK-35765", "OBJECT_ID": "2025-294M", "EPOCH": "2025-12-26T22:00:01.999584", "MEAN_MOTION": 15.63996713, "ECCENTRICITY": 0.00016679, "INCLINATION": 42.9993, "RA_OF_ASC_NODE": 95.6516, "ARG_OF_PERICENTER": 281.1545, "MEAN_ANOMALY": 74.0293, "EPHEMERIS_TYPE": 0, "CLASSIFICATION_TYPE": "U", "NORAD_CAT_ID": 67041, "ELEMENT_SET_NO": 999, "REV_AT_EPOCH": 238, "BSTAR": -0.02302979, "MEAN_MOTION_DOT": -0.01969826, "MEAN_MOTION_DDOT": 0}, "tle": {"line1": "1 67041U 25294M   25360.91668981 -.01969826  00000+0 -23030-1 0  9995", "line2": "2 67041  42.9993  95.6516 0001667 281.1545  74.0293 15.63996713  2382"}}, "geometry": {"type": "Point", "coordinates": [-39.650373626745235, -34.211879814533106]}}, {"type": "Feature", "properties": {"norad_id": 67042, "name": "STARLINK-35773", "group": "last-30-days", "lat": -35.137474111529, "lon": -37.46237465684902, "alt_km": 382.91385572900435, "timestamp": "2025-12-27T06:41:29.622185+00:00", "meta": {"OBJECT_NAME": "STARLINK-35773", "OBJECT_ID": "2025-294N", "EPOCH": "2025-12-26T22:00:01.999584", "MEAN_MOTION": 15.63987459, "ECCENTRICITY": 0.00016069, "INCLINATION": 42.9994, "RA_OF_ASC_NODE": 95.6466, "ARG_OF_PERICENTER": 280.81, "MEAN_ANOMALY": 76.4152, "EPHEMERIS_TYPE": 0, "CLASSIFICATION_TYPE": "U", "NORAD_CAT_ID": 67042, "ELEMENT_SET_NO": 999, "REV_AT_EPOCH": 258, "BSTAR": -0.023055265, "MEAN_MOTION_DOT": -0.01971054, "MEAN_MOTION_DDOT": 0}, "tle": {"line1": "1 67042U 25294N   25360.91668981 -.01971054  00000+0 -23055-1 0  9999", "line2": "2 67042  42.9994  95.6466 0001606 280.8100  76.4152 15.63987459  2583"}}, "geometry": {"type": "Point", "coordinates": [-37.46237465684902, -35.137474111529]}}, {"type": "Feature", "properties": {"norad_id": 67043, "name": "STARLINK-35901", "group": "last-30-days", "lat": -36.01827815973357, "lon": -35.236095505756055, "alt_km": 382.96121743040294, "timestamp": "2025-12-27T06:41:29.622195+00:00", "meta": {"OBJECT_NAME": "STARLINK-35901", "OBJECT_ID": "2025-294P", "EPOCH": "2025-12-26T22:00:01.999584", "MEAN_MOTION": 15.63977001, "ECCENTRICITY": 0.00016757, "INCLINATION": 42.9993, "RA_OF_ASC_NODE": 95.6416, "ARG_OF_PERICENTER": 282.9708, "MEAN_ANOMALY": 76.2881, "EPHEMERIS_TYPE": 0, "CLASSIFICATION_TYPE": "U", "NORAD_CAT_ID": 67043, "ELEMENT_SET_NO": 999, "REV_AT_EPOCH": 258, "BSTAR": -0.023054415, "MEAN_MOTION_DOT": -0.01970317, "MEAN_MOTION_DDOT": 0}, "tle": {"line1": "1 67043U 25294P   25360.91668981 -.01970317  00000+0 -23054-1 0  9990", "line2": "2 67043  42.9993  95.6416 0001675 282.9708  76.2881 15.63977001  2580"}}, "geometry": {"type": "Point", "coordinates": [-35.236095505756055, -36.01827815973357]}}, {"type": "Feature", "properties": {"norad_id": 67044, "name": "STARLINK-35884", "group": "last-30-days", "lat": -36.84934143218088, "lon": -32.98272336971, "alt_km": 382.9997241841502, "timestamp": "2025-12-27T06:41:29.622206+00:00", "meta": {"OBJECT_NAME": "STARLINK-35884", "OBJECT_ID": "2025-294Q", "EPOCH": "2025-12-26T22:00:01.999584", "MEAN_MOTION": 15.63969185, "ECCENTRICITY": 0.00016339, "INCLINATION": 42.9996, "RA_OF_ASC_NODE": 95.6367, "ARG_OF_PERICENTER": 282.1718, "MEAN_ANOMALY": 79.0971, "EPHEMERIS_TYPE": 0, "CLASSIFICATION_TYPE": "U", "NORAD_CAT_ID": 67044, "ELEMENT_SET_NO": 999, "REV_AT_EPOCH": 258, "BSTAR": -0.023067606, "MEAN_MOTION_DOT": -0.01970734, "MEAN_MOTION_DDOT": 0}, "tle": {"line1": "1 67044U 25294Q   25360.91668981 -.01970734  00000+0 -23068-1 0  9999", "line2": "2 67044  42.9996  95.6367 0001633 282.1718  79.0971 15.63969185  2581"}}, "geometry": {"type": "Point", "coordinates": [-32.98272336971, -36.84934143218088]}}, {"type": "Feature", "properties": {"norad_id": 67045, "name": "STARLINK-35891", "group": "last-30-days", "lat": -37.688012539646635, "lon": -30.523645318449802, "alt_km": 383.06886371814926, "timestamp": "2025-12-27T06:41:29.622218+00:00", "meta": {"OBJECT_NAME": "STARLINK-35891", "OBJECT_ID": "2025-294R", "EPOCH": "2025-12-26T22:00:01.999584", "MEAN_MOTION": 15.63946556, "ECCENTRICITY": 0.00016292, "INCLINATION": 42.9994, "RA_OF_ASC_NODE": 95.6311, "ARG_OF_PERICENTER": 281.9829, "MEAN_ANOMALY": 81.4504, "EPHEMERIS_TYPE": 0, "CLASSIFICATION_TYPE": "U", "NORAD_CAT_ID": 67045, "ELEMENT_SET_NO": 999, "REV_AT_EPOCH": 249, "BSTAR": -0.023077271, "MEAN_MOTION_DOT": -0.01969887, "MEAN_MOTION_DDOT": 0}, "tle": {"line1": "1 67045U 25294R   25360.91668981 -.01969887  00000+0 -23077-1 0  9997", "line2": "2 67045  42.9994  95.6311 0001629 281.9829  81.4504 15.63946556  2490"}}, "geometry": {"type": "Point", "coordinates": [-30.523645318449802, -37.688012539646635]}}, {"type": "Feature", "properties": {"norad_id": 67046, "name": "STARLINK-35721", "group": "last-30-days", "lat": -38.44650838275317, "lon": -28.103310574408752, "alt_km": 383.12068217675005, "timestamp": "2025-12-27T06:41:29.622230+00:00", "meta": {"OBJECT_NAME": "STARLINK-35721", "OBJECT_ID": "2025-294S", "EPOCH": "2025-12-26T22:00:01.999584", "MEAN_MOTION": 15.63934236, "ECCENTRICITY": 0.0001583, "INCLINATION": 42.9995, "RA_OF_ASC_NODE": 95.626, "ARG_OF_PERICENTER": 280.5777, "MEAN_ANOMALY": 84.9299, "EPHEMERIS_TYPE": 0, "CLASSIFICATION_TYPE": "U", "NORAD_CAT_ID": 67046, "ELEMENT_SET_NO": 999, "REV_AT_EPOCH": 258, "BSTAR": -0.02313584, "MEAN_MOTION_DOT": -0.01973393, "MEAN_MOTION_DDOT": 0}, "tle": {"line1": "1 67046U 25294S   25360.91668981 -.01973393  00000+0 -23136-1 0  9991", "line2": "2 67046  42.9995  95.6260 0001583 280.5777  84.9299 15.63934236  2582"}}, "geometry": {"type": "Point", "coordinates": [-28.103310574408752, -38.44650838275317]}}, {"type": "Feature", "properties": {"norad_id": 67047, "name": "STARLINK-35779", "group": "last-30-days", "lat": -39.179163341851954, "lon": -25.540779523356157, "alt_km": 383.1824263100016, "timestamp": "2025-12-27T06:41:29.622241+00:00", "meta": {"OBJECT_NAME": "STARLINK-35779", "OBJECT_ID": "2025-294T", "EPOCH": "2025-12-26T22:00:01.999584", "MEAN_MOTION": 15.63911399, "ECCENTRICITY": 0.00016131, "INCLINATION": 42.9996, "RA_OF_ASC_NODE": 95.6207, "ARG_OF_PERICENTER": 281.8749, "MEAN_ANOMALY": 85.7936, "EPHEMERIS_TYPE": 0, "CLASSIFICATION_TYPE": "U", "NORAD_CAT_ID": 67047, "ELEMENT_SET_NO": 999, "REV_AT_EPOCH": 238, "BSTAR": -0.023095447, "MEAN_MOTION_DOT": -0.01968802, "MEAN_MOTION_DDOT": 0}, "tle": {"line1": "1 67047U 25294T   25360.91668981 -.01968802  00000+0 -23095-1 0  9995", "line2": "2 67047  42.9996  95.6207 0001613 281.8749  85.7936 15.63911399  2382"}}, "geometry": {"type": "Point", "coordinates": [-25.540779523356157, -39.179163341851954]}}, {"type": "Feature", "properties": {"norad_id": 67048, "name": "STARLINK-35905", "group": "last-30-days", "lat": -39.79639118832303, "lon": -23.167515921042824, "alt_km": 383.13336345254993, "timestamp": "2025-12-27T06:41:29.622250+00:00", "meta": {"OBJECT_NAME": "STARLINK-35905", "OBJECT_ID": "2025-294U", "EPOCH": "2025-12-26T22:00:01.999584", "MEAN_MOTION": 15.63912207, "ECCENTRICITY": 0.00016858, "INCLINATION": 43.001, "RA_OF_ASC_NODE": 95.6156, "ARG_OF_PERICENTER": 280.2264, "MEAN_ANOMALY": 89.3841, "EPHEMERIS_TYPE": 0, "CLASSIFICATION_TYPE": "U", "NORAD_CAT_ID": 67048, "ELEMENT_SET_NO": 999, "REV_AT_EPOCH": 249, "BSTAR": -0.02319179, "MEAN_MOTION_DOT": -0.01976134, "MEAN_MOTION_DDOT": 0}, "tle": {"line1": "1 67048U 25294U   25360.91668981 -.01976134  00000+0 -23192-1 0  9991", "line2": "2 67048  43.0010  95.6156 0001685 280.2264  89.3841 15.63912207  2495"}}, "geometry": {"type": "Point", "coordinates": [-23.167515921042824, -39.79639118832303]}}, {"type": "Feature", "properties": {"norad_id": 67049, "name": "STARLINK-35877", "group": "last-30-days", "lat": -40.40610871952525, "lon": -20.55308827719014, "alt_km": 383.2535957684522, "timestamp": "2025-12-27T06:41:29.622260+00:00", "meta": {"OBJECT_NAME": "STARLINK-35877", "OBJECT_ID": "2025-294V", "EPOCH": "2025-12-26T22:00:01.999584", "MEAN_MOTION": 15.63890063, "ECCENTRICITY": 0.00016551, "INCLINATION": 43.0001, "RA_OF_ASC_NODE": 95.6105, "ARG_OF_PERICENTER": 284.2477, "MEAN_ANOMALY": 87.485, "EPHEMERIS_TYPE": 0, "CLASSIFICATION_TYPE": "U", "NORAD_CAT_ID": 67049, "ELEMENT_SET_NO": 999, "REV_AT_EPOCH": 258, "BSTAR": -0.023106089, "MEAN_MOTION_DOT": -0.01968154, "MEAN_MOTION_DDOT": 0}, "tle": {"line1": "1 67049U 25294V   25360.91668981 -.01968154  00000+0 -23106-1 0  9990", "line2": "2 67049  43.0001  95.6105 0001655 284.2477  87.4850 15.63890063  2581"}}, "geometry": {"type": "Point", "coordinates": [-20.55308827719014, -40.40610871952525]}}, {"type": "Feature", "properties": {"norad_id": 67050, "name": "STARLINK-36078", "group": "last-30-days", "lat": -40.95927927322252, "lon": -17.878064059789168, "alt_km": 383.30573656275374, "timestamp": "2025-12-27T06:41:29.622270+00:00", "meta": {"OBJECT_NAME": "STARLINK-36078", "OBJECT_ID": "2025-294W", "EPOCH": "2025-12-26T22:00:01.999584", "MEAN_MOTION": 15.63873178, "ECCENTRICITY": 0.00015963, "INCLINATION": 42.9999, "RA_OF_ASC_NODE": 95.6053, "ARG_OF_PERICENTER": 281.7812, "MEAN_ANOMALY": 92.0831, "EPHEMERIS_TYPE": 0, "CLASSIFICATION_TYPE": "U", "NORAD_CAT_ID": 67050, "ELEMENT_SET_NO": 999, "REV_AT_EPOCH": 250, "BSTAR": -0.023166484, "MEAN_MOTION_DOT": -0.01971463, "MEAN_MOTION_DDOT": 0}, "tle": {"line1": "1 67050U 25294W   25360.91668981 -.01971463  00000+0 -23166-1 0  9995", "line2": "2 67050  42.9999  95.6053 0001596 281.7812  92.0831 15.63873178  2509"}}, "geometry": {"type": "Point", "coordinates": [-17.878064059789168, -40.95927927322252]}}]}